EUTELSAT 21B            
1 38992U 12062B   25284.92199715  .00000122  00000+0  00000+0 0  9999
2 38992   0.0773  24.5336 0002696 182.6899 167.0299  1.00271679 47333
EUTELSAT 70B            
1 39020U 12069A   25284.97753063 -.00000051  00000+0  00000+0 0  9998
2 39020   0.0662  13.8367 0004140 188.0438 241.3499  1.00271943 47021
EUTELSAT 117 WEST A     
1 39122U 13012A   25284.89444626 -.00000021  00000+0  00000+0 0  9990
2 39122   0.0589  66.6266 0002836 143.4576  15.8602  1.00272379 45947
EUTELSAT 7B             
1 39163U 13022A   25284.89558705  .00000040  00000+0  00000+0 0  9990
2 39163   0.0707  12.3064 0001586 293.7651  44.0683  1.00270840 45463
EXPRESS-AT1             
1 39612U 14010A   25284.94836310  .00000071  00000+0  00000+0 0  9998
2 39612   0.0177 224.9076 0000277 280.5811 272.7232  1.00271046 42326
EXPRESS-AT2             
1 39613U 14010B   25284.94539727 -.00000289  00000+0  00000+0 0  9993
2 39613   0.0171 228.6426 0000312 167.6763 104.6611  1.00268734 42012
EUTELSAT 3B             
1 39773U 14030A   25284.89558705  .00000013  00000+0  00000+0 0  9997
2 39773   0.0668  17.2699 0004565 181.4545 147.5252  1.00272474 41573
EUTELSAT 115 WEST B     
1 40425U 15010B   25284.60943966 -.00000032  00000+0  00000+0 0  9990
2 40425   0.0075  27.6809 0000341  73.3340  23.9523  1.00271115 38901
